{"type": "FeatureCollection", "features": [ {"type": "Feature", "properties": {"norad_id": 31286, "name": "FENGYUN 1C DEB", "group": "fengyun-1c-debris", "lat": 11.916341011613033, "lon": 71.00826215270054, "alt_km": 813.6859672306819, "timestamp": "2025-12-21T22:41:41.741520+00:00", "meta": {"OBJECT_NAME": "FENGYUN 1C DEB", "OBJECT_ID": "1999-025BNU", "EPOCH": "2025-12-21T10:05:13.987392", "MEAN_MOTION": 14.22849794, "ECCENTRICITY": 0.00792235, "INCLINATION": 100.8596, "RA_OF_ASC_NODE": 248.0403, "ARG_OF_PERICENTER": 256.4033, "MEAN_ANOMALY": 102.8305, "EPHEMERIS_TYPE": 0, "CLASSIFICATION_TYPE": "U", "NORAD_CAT_ID": 31286, "ELEMENT_SET_NO": 999, "REV_AT_EPOCH": 64143, "BSTAR": 0.002079395, "MEAN_MOTION_DOT": 4.763e-05, "MEAN_MOTION_DDOT": 0}, "tle": {"line1": "1 31286U 99025BNU 25355.42030078  .00004763  00000+0  20794-2 0  9992", "line2": "2 31286 100.8596 248.0403 0079223 256.4033 102.8305 14.22849794641435"}}, "geometry": {"type": "Point", "coordinates": [71.00826215270054, 11.916341011613033]}}, {"type": "Feature", "properties": {"norad_id": 31287, "name": "FENGYUN 1C DEB", "group": "fengyun-1c-debris", "lat": 31.23971860719753, "lon": 46.82115873318241, "alt_km": 776.9080834944152, "timestamp": "2025-12-21T22:41:41.741530+00:00", "meta": {"OBJECT_NAME": "FENGYUN 1C DEB", "OBJECT_ID": "1999-025BNV", "EPOCH": "2025-12-17T09:14:55.199040", "MEAN_MOTION": 14.280549, "ECCENTRICITY": 0.0027206, "INCLINATION": 99.41, "RA_OF_ASC_NODE": 47.6846, "ARG_OF_PERICENTER": 50.1324, "MEAN_ANOMALY": 310.2241, "EPHEMERIS_TYPE": 0, "CLASSIFICATION_TYPE": "U", "NORAD_CAT_ID": 31287, "ELEMENT_SET_NO": 999, "REV_AT_EPOCH": 96752, "BSTAR": 0.0011667317, "MEAN_MOTION_DOT": 2.86e-05, "MEAN_MOTION_DDOT": 0}, "tle": {"line1": "1 31287U 99025BNV 25351.38536110  .00002860  00000+0  11667-2 0  9997", "line2": "2 31287  99.4100  47.6846 0027206  50.1324 310.2241 14.28054900967528"}}, "geometry": {"type": "Point", "coordinates": [46.82115873318241, 31.23971860719753]}}, {"type": "Feature", "properties": {"norad_id": 31288, "name": "FENGYUN 1C DEB", "group": "fengyun-1c-debris", "lat": -79.98312554437912, "lon": -85.58413326983188, "alt_km": 569.0273789099847, "timestamp": "2025-12-21T22:41:41.741540+00:00", "meta": {"OBJECT_NAME": "FENGYUN 1C DEB", "OBJECT_ID": "1999-025BNW", "EPOCH": "2025-12-20T16:41:27.142656", "MEAN_MOTION": 14.96498831, "ECCENTRICITY": 0.00226672, "INCLINATION": 98.7466, "RA_OF_ASC_NODE": 153.6699, "ARG_OF_PERICENTER": 273.215, "MEAN_ANOMALY": 100.5967, "EPHEMERIS_TYPE": 0, "CLASSIFICATION_TYPE": "U", "NORAD_CAT_ID": 31288, "ELEMENT_SET_NO": 999, "REV_AT_EPOCH": 97676, "BSTAR": 0.0033479483, "MEAN_MOTION_DOT": 0.00038351, "MEAN_MOTION_DDOT": 0}, "tle": {"line1": "1 31288U 99025BNW 25354.69545304  .00038351  00000+0  33479-2 0  9999", "line2": "2 31288  98.7466 153.6699 0022667 273.2150 100.5967 14.96498831976762"}}, "geometry": {"type": "Point", "coordinates": [-85.58413326983188, -79.98312554437912]}}, {"type": "Feature", "properties": {"norad_id": 31293, "name": "FENGYUN 1C DEB", "group": "fengyun-1c-debris", "lat": -2.042168209086805, "lon": -176.88013443883364, "alt_km": 718.60378540271, "timestamp": "2025-12-21T22:41:41.741550+00:00", "meta": {"OBJECT_NAME": "FENGYUN 1C DEB", "OBJECT_ID": "1999-025BPB", "EPOCH": "2025-12-18T06:33:54.864288", "MEAN_MOTION": 14.3081483, "ECCENTRICITY": 0.01256227, "INCLINATION": 98.4226, "RA_OF_ASC_NODE": 359.8639, "ARG_OF_PERICENTER": 228.3966, "MEAN_ANOMALY": 130.64, "EPHEMERIS_TYPE": 0, "CLASSIFICATION_TYPE": "U", "NORAD_CAT_ID": 31293, "ELEMENT_SET_NO": 999, "REV_AT_EPOCH": 65323, "BSTAR": 6.7010406e-05, "MEAN_MOTION_DOT": 1.47e-06, "MEAN_MOTION_DDOT": 0}, "tle": {"line1": "1 31293U 99025BPB 25352.27355167  .00000147  00000+0  67010-4 0  9995", "line2": "2 31293  98.4226 359.8639 0125622 228.3966 130.6400 14.30814830653233"}}, "geometry": {"type": "Point", "coordinates": [-176.88013443883364, -2.042168209086805]}}, {"type": "Feature", "properties": {"norad_id": 31294, "name": "FENGYUN 1C DEB", "group": "fengyun-1c-debris", "lat": 80.45357761496703, "lon": -125.47304110779541, "alt_km": 888.1253053223763, "timestamp": "2025-12-21T22:41:41.741560+00:00", "meta": {"OBJECT_NAME": "FENGYUN 1C DEB", "OBJECT_ID": "1999-025BPC", "EPOCH": "2025-12-19T22:44:39.754176", "MEAN_MOTION": 14.15326352, "ECCENTRICITY": 0.0099306, "INCLINATION": 98.5431, "RA_OF_ASC_NODE": 349.2579, "ARG_OF_PERICENTER": 320.3267, "MEAN_ANOMALY": 39.0671, "EPHEMERIS_TYPE": 0, "CLASSIFICATION_TYPE": "U", "NORAD_CAT_ID": 31294, "ELEMENT_SET_NO": 999, "REV_AT_EPOCH": 96955, "BSTAR": 0.00037135, "MEAN_MOTION_DOT": 7.16e-06, "MEAN_MOTION_DDOT": 0}, "tle": {"line1": "1 31294U 99025BPC 25353.94768234  .00000716  00000+0  37135-3 0  9990", "line2": "2 31294  98.5431 349.2579 0099306 320.3267  39.0671 14.15326352969552"}}, "geometry": {"type": "Point", "coordinates": [-125.47304110779541, 80.45357761496703]}}, {"type": "Feature", "properties": {"norad_id": 31295, "name": "FENGYUN 1C DEB", "group": "fengyun-1c-debris", "lat": 32.31185795605546, "lon": 5.315317557277383, "alt_km": 890.6462687620206, "timestamp": "2025-12-21T22:41:41.741570+00:00", "meta": {"OBJECT_NAME": "FENGYUN 1C DEB", "OBJECT_ID": "1999-025BPD", "EPOCH": "2025-12-21T06:30:47.231136", "MEAN_MOTION": 13.9683376, "ECCENTRICITY": 0.0077134, "INCLINATION": 98.3164, "RA_OF_ASC_NODE": 179.3974, "ARG_OF_PERICENTER": 227.0231, "MEAN_ANOMALY": 132.4451, "EPHEMERIS_TYPE": 0, "CLASSIFICATION_TYPE": "U", "NORAD_CAT_ID": 31295, "ELEMENT_SET_NO": 999, "REV_AT_EPOCH": 95622, "BSTAR": -4.1866e-05, "MEAN_MOTION_DOT": -9.8e-07, "MEAN_MOTION_DDOT": 0}, "tle": {"line1": "1 31295U 99025BPD 25355.27137999 -.00000098  00000+0 -41866-4 0  9999", "line2": "2 31295  98.3164 179.3974 0077134 227.0231 132.4451 13.96833760956222"}}, "geometry": {"type": "Point", "coordinates": [5.315317557277383, 32.31185795605546]}}, {"type": "Feature", "properties": {"norad_id": 31296, "name": "FENGYUN 1C DEB", "group": "fengyun-1c-debris", "lat": -80.91831239031609, "lon": 4.376965191131874, "alt_km": 661.5816667486433, "timestamp": "2025-12-21T22:41:41.741581+00:00", "meta": {"OBJECT_NAME": "FENGYUN 1C DEB", "OBJECT_ID": "1999-025BPE", "EPOCH": "2025-12-21T11:41:06.848448", "MEAN_MOTION": 14.71845246, "ECCENTRICITY": 0.00197125, "INCLINATION": 99.0673, "RA_OF_ASC_NODE": 271.3767, "ARG_OF_PERICENTER": 184.4687, "MEAN_ANOMALY": 175.6344, "EPHEMERIS_TYPE": 0, "CLASSIFICATION_TYPE": "U", "NORAD_CAT_ID": 31296, "ELEMENT_SET_NO": 999, "REV_AT_EPOCH": 97478, "BSTAR": 0.0030427519, "MEAN_MOTION_DOT": 0.00019079, "MEAN_MOTION_DDOT": 0}, "tle": {"line1": "1 31296U 99025BPE 25355.48688482  .00019079  00000+0  30428-2 0  9998", "line2": "2 31296  99.0673 271.3767 0019712 184.4687 175.6344 14.71845246974785"}}, "geometry": {"type": "Point", "coordinates": [4.376965191131874, -80.91831239031609]}}, {"type": "Feature", "properties": {"norad_id": 31297, "name": "FENGYUN 1C DEB", "group": "fengyun-1c-debris", "lat": -78.48581101995124, "lon": -97.05496489415856, "alt_km": 806.3558421309526, "timestamp": "2025-12-21T22:41:41.741591+00:00", "meta": {"OBJECT_NAME": "FENGYUN 1C DEB", "OBJECT_ID": "1999-025BPF", "EPOCH": "2025-12-21T08:27:04.379328", "MEAN_MOTION": 14.57108427, "ECCENTRICITY": 0.01395937, "INCLINATION": 98.9347, "RA_OF_ASC_NODE": 132.8672, "ARG_OF_PERICENTER": 96.8123, "MEAN_ANOMALY": 294.1487, "EPHEMERIS_TYPE": 0, "CLASSIFICATION_TYPE": "U", "NORAD_CAT_ID": 31297, "ELEMENT_SET_NO": 999, "REV_AT_EPOCH": 99441, "BSTAR": 0.00025620154, "MEAN_MOTION_DOT": 1.259e-05, "MEAN_MOTION_DDOT": 0}, "tle": {"line1": "1 31297U 99025BPF 25355.35213402  .00001259  00000+0  25620-3 0  9991", "line2": "2 31297  98.9347 132.8672 0139593  96.8123 294.1487 14.57108427994413"}}, "geometry": {"type": "Point", "coordinates": [-97.05496489415856, -78.48581101995124]}}, {"type": "Feature", "properties": {"norad_id": 31300, "name": "FENGYUN 1C DEB", "group": "fengyun-1c-debris", "lat": -73.06908285637803, "lon": -137.61178536182118, "alt_km": 881.1115652663111, "timestamp": "2025-12-21T22:41:41.741601+00:00", "meta": {"OBJECT_NAME": "FENGYUN 1C DEB", "OBJECT_ID": "1999-025BPJ", "EPOCH": "2025-12-21T00:14:35.388384", "MEAN_MOTION": 14.15159695, "ECCENTRICITY": 0.00597807, "INCLINATION": 99.5422, "RA_OF_ASC_NODE": 74.9312, "ARG_OF_PERICENTER": 36.7902, "MEAN_ANOMALY": 136.2643, "EPHEMERIS_TYPE": 0, "CLASSIFICATION_TYPE": "U", "NORAD_CAT_ID": 31300, "ELEMENT_SET_NO": 999, "REV_AT_EPOCH": 96291, "BSTAR": 0.0007547015, "MEAN_MOTION_DOT": 1.441e-05, "MEAN_MOTION_DDOT": 0}, "tle": {"line1": "1 31300U 99025BPJ 25355.01013181  .00001441  00000+0  75470-3 0  9992", "line2": "2 31300  99.5422  74.9312 0059780  36.7902 136.2643 14.15159695962910"}}, "geometry": {"type": "Point", "coordinates": [-137.61178536182118, -73.06908285637803]}}, {"type": "Feature", "properties": {"norad_id": 31302, "name": "FENGYUN 1C DEB", "group": "fengyun-1c-debris", "lat": 32.85068564107224, "lon": -135.16346825716124, "alt_km": 806.6866599767864, "timestamp": "2025-12-21T22:41:41.741611+00:00", "meta": {"OBJECT_NAME": "FENGYUN 1C DEB", "OBJECT_ID": "1999-025BPL", "EPOCH": "2025-12-19T15:12:58.171104", "MEAN_MOTION": 14.27574345, "ECCENTRICITY": 0.002659, "INCLINATION": 99.4129, "RA_OF_ASC_NODE": 36.2, "ARG_OF_PERICENTER": 35.1141, "MEAN_ANOMALY": 117.7071, "EPHEMERIS_TYPE": 0, "CLASSIFICATION_TYPE": "U", "NORAD_CAT_ID": 31302, "ELEMENT_SET_NO": 999, "REV_AT_EPOCH": 96456, "BSTAR": 0.00096178, "MEAN_MOTION_DOT": 2.325e-05, "MEAN_MOTION_DDOT": 0}, "tle": {"line1": "1 31302U 99025BPL 25353.63400661  .00002325  00000+0  96178-3 0  9993", "line2": "2 31302  99.4129  36.2000 0026590  35.1141 117.7071 14.27574345964569"}}, "geometry": {"type": "Point", "coordinates": [-135.16346825716124, 32.85068564107224]}}]}